start=new Date('2023-03-28T00:00:00.000Z').valueOf();
sats=[{"EPOCH":"2023-03-27T20:47:27.844800","PERIAPSIS":"546.708","REV_AT_EPOCH":"13747","MEAN_MOTION_DDOT":"0.0000000000000","CLASSIFICATION_TYPE":"U","MEAN_MOTION":"15.06399026","LAUNCH_DATE":"2020-10-06","TIME_SYSTEM":"UTC","NORAD_CAT_ID":"46578","FILE":"3872915","COUNTRY_CODE":"US","MEAN_ANOMALY":"264.9622","ECCENTRICITY":"0.00007340","ELEMENT_SET_NO":"999","MEAN_MOTION_DOT":"0.00025823","ARG_OF_PERICENTER":"95.1451","SEMIMAJOR_AXIS":"6925.352","SITE":"AFETR","RA_OF_ASC_NODE":"305.2068","CENTER_NAME":"EARTH","RCS_SIZE":"LARGE","INCLINATION":"53.0522","TLE_LINE1":"1 46578U 20070AY  23086.86629450  .00025823  00000-0  17462-2 0  9990","REF_FRAME":"TEME","OBJECT_TYPE":"PAYLOAD","OBJECT_ID":"2020-070AY","BSTAR":"0.00174620000000","APOAPSIS":"547.725","PERIOD":"95.592","OBJECT_NAME":"STARLINK-1683","GP_ID":"228989063","EPHEMERIS_TYPE":"0","MEAN_ELEMENT_THEORY":"SGP4","DECAY_DATE":null,"TLE_LINE2":"2 46578  53.0522 305.2068 0000734  95.1451 264.9622 15.06399026137476"},{"TLE_LINE1":"1 46579U 20070AZ  23086.93679699  .00024737  00000-0  16732-2 0  9991","REF_FRAME":"TEME","BSTAR":"0.00167320000000","OBJECT_TYPE":"PAYLOAD","OBJECT_ID":"2020-070AZ","PERIOD":"95.591","APOAPSIS":"547.922","OBJECT_NAME":"STARLINK-1705","GP_ID":"228990313","EPHEMERIS_TYPE":"0","MEAN_ELEMENT_THEORY":"SGP4","DECAY_DATE":null,"TLE_LINE2":"2 46579  53.0534 319.8379 0001075  86.6995 273.4117 15.06411750137274","EPOCH":"2023-03-27T22:28:59.259936","PERIAPSIS":"546.433","REV_AT_EPOCH":"13727","MEAN_MOTION_DDOT":"0.0000000000000","CLASSIFICATION_TYPE":"U","MEAN_MOTION":"15.06411750","LAUNCH_DATE":"2020-10-06","NORAD_CAT_ID":"46579","TIME_SYSTEM":"UTC","FILE":"3872915","COUNTRY_CODE":"US","MEAN_ANOMALY":"273.4117","ECCENTRICITY":"0.00010750","ELEMENT_SET_NO":"999","MEAN_MOTION_DOT":"0.00024737","ARG_OF_PERICENTER":"86.6995","SEMIMAJOR_AXIS":"6925.313","SITE":"AFETR","RA_OF_ASC_NODE":"319.8379","CENTER_NAME":"EARTH","INCLINATION":"53.0534","RCS_SIZE":"LARGE"},{"ARG_OF_PERICENTER":"78.1500","MEAN_MOTION_DOT":"0.00020634","ECCENTRICITY":"0.00010940","ELEMENT_SET_NO":"999","COUNTRY_CODE":"US","MEAN_ANOMALY":"281.9612","CENTER_NAME":"EARTH","INCLINATION":"53.0526","RCS_SIZE":"LARGE","SITE":"AFETR","RA_OF_ASC_NODE":"319.9369","SEMIMAJOR_AXIS":"6925.351","CLASSIFICATION_TYPE":"U","MEAN_MOTION_DDOT":"0.0000000000000","REV_AT_EPOCH":"13727","PERIAPSIS":"546.458","EPOCH":"2023-03-27T21:57:08.443584","FILE":"3872915","NORAD_CAT_ID":"46580","TIME_SYSTEM":"UTC","MEAN_MOTION":"15.06399300","LAUNCH_DATE":"2020-10-06","MEAN_ELEMENT_THEORY":"SGP4","GP_ID":"228990064","OBJECT_NAME":"STARLINK-1708","EPHEMERIS_TYPE":"0","TLE_LINE2":"2 46580  53.0526 319.9369 0001094  78.1500 281.9612 15.06399300137276","DECAY_DATE":null,"REF_FRAME":"TEME","BSTAR":"0.00140010000000","OBJECT_TYPE":"PAYLOAD","OBJECT_ID":"2020-070BA","TLE_LINE1":"1 46580U 20070BA  23086.91468106  .00020634  00000-0  14001-2 0  9999","APOAPSIS":"547.973","PERIOD":"95.592"},{"MEAN_ELEMENT_THEORY":"SGP4","EPHEMERIS_TYPE":"0","OBJECT_NAME":"STARLINK-1712","GP_ID":"228989313","TLE_LINE2":"2 46581  53.0544 315.0910 0001221  72.9273 287.1850 15.06392136137336","DECAY_DATE":null,"OBJECT_TYPE":"PAYLOAD","BSTAR":"0.00103830000000","OBJECT_ID":"2020-070BB","REF_FRAME":"TEME","TLE_LINE1":"1 46581U 20070BB  23086.88012354  .00015214  00000-0  10383-2 0  9993","PERIOD":"95.593","APOAPSIS":"548.083","ARG_OF_PERICENTER":"72.9273","MEAN_MOTION_DOT":"0.00015214","ELEMENT_SET_NO":"999","ECCENTRICITY":"0.00012210","MEAN_ANOMALY":"287.1850","COUNTRY_CODE":"US","INCLINATION":"53.0544","RCS_SIZE":"LARGE","CENTER_NAME":"EARTH","RA_OF_ASC_NODE":"315.0910","SITE":"AFETR","SEMIMAJOR_AXIS":"6925.373","CLASSIFICATION_TYPE":"U","MEAN_MOTION_DDOT":"0.0000000000000","REV_AT_EPOCH":"13733","EPOCH":"2023-03-27T21:07:22.673856","PERIAPSIS":"546.392","FILE":"3872915","TIME_SYSTEM":"UTC","NORAD_CAT_ID":"46581","LAUNCH_DATE":"2020-10-06","MEAN_MOTION":"15.06392136"},{"PERIOD":"95.590","APOAPSIS":"547.845","TLE_LINE1":"1 46582U 20070BC  23086.93174553  .00042487  00000-0  28513-2 0  9996","OBJECT_ID":"2020-070BC","OBJECT_TYPE":"PAYLOAD","BSTAR":"0.00285130000000","REF_FRAME":"TEME","DECAY_DATE":null,"TLE_LINE2":"2 46582  53.0522 314.8569 0001073  77.3990 282.7119 15.06436445137342","EPHEMERIS_TYPE":"0","OBJECT_NAME":"STARLINK-1728","GP_ID":"228989563","MEAN_ELEMENT_THEORY":"SGP4","LAUNCH_DATE":"2020-10-06","MEAN_MOTION":"15.06436445","NORAD_CAT_ID":"46582","TIME_SYSTEM":"UTC","FILE":"3872915","EPOCH":"2023-03-27T22:21:42.813792","PERIAPSIS":"546.359","REV_AT_EPOCH":"13734","MEAN_MOTION_DDOT":"0.0000000000000","CLASSIFICATION_TYPE":"U","SEMIMAJOR_AXIS":"6925.237","RA_OF_ASC_NODE":"314.8569","SITE":"AFETR","RCS_SIZE":"LARGE","INCLINATION":"53.0522","CENTER_NAME":"EARTH","MEAN_ANOMALY":"282.7119","COUNTRY_CODE":"US","ELEMENT_SET_NO":"999","ECCENTRICITY":"0.00010730","MEAN_MOTION_DOT":"0.00042487","ARG_OF_PERICENTER":"77.3990"},{"TLE_LINE1":"1 46583U 20070BD  23086.91513776  .00021593  00000-0  14640-2 0  9990","OBJECT_ID":"2020-070BD","OBJECT_TYPE":"PAYLOAD","BSTAR":"0.00146400000000","REF_FRAME":"TEME","PERIOD":"95.592","APOAPSIS":"548.089","EPHEMERIS_TYPE":"0","GP_ID":"228989814","OBJECT_NAME":"STARLINK-1729","MEAN_ELEMENT_THEORY":"SGP4","TLE_LINE2":"2 46583  53.0542 334.9349 0001275 110.0641 250.0485 15.06402428137052","DECAY_DATE":null,"REV_AT_EPOCH":"13705","EPOCH":"2023-03-27T21:57:47.902464","PERIAPSIS":"546.323","CLASSIFICATION_TYPE":"U","MEAN_MOTION_DDOT":"0.0000000000000","LAUNCH_DATE":"2020-10-06","MEAN_MOTION":"15.06402428","FILE":"3872915","TIME_SYSTEM":"UTC","NORAD_CAT_ID":"46583","ELEMENT_SET_NO":"999","ECCENTRICITY":"0.00012750","MEAN_ANOMALY":"250.0485","COUNTRY_CODE":"US","ARG_OF_PERICENTER":"110.0641","MEAN_MOTION_DOT":"0.00021593","RA_OF_ASC_NODE":"334.9349","SITE":"AFETR","SEMIMAJOR_AXIS":"6925.341","RCS_SIZE":"LARGE","INCLINATION":"53.0542","CENTER_NAME":"EARTH"},{"ELEMENT_SET_NO":"999","ECCENTRICITY":"0.00012980","MEAN_ANOMALY":"221.6963","COUNTRY_CODE":"US","ARG_OF_PERICENTER":"138.4125","MEAN_MOTION_DOT":"0.00059705","RA_OF_ASC_NODE":"314.8436","SITE":"AFETR","SEMIMAJOR_AXIS":"6925.241","INCLINATION":"53.0523","RCS_SIZE":"LARGE","CENTER_NAME":"EARTH","REV_AT_EPOCH":"13734","PERIAPSIS":"546.208","EPOCH":"2023-03-27T22:27:02.442816","CLASSIFICATION_TYPE":"U","MEAN_MOTION_DDOT":"0.0000000000000","LAUNCH_DATE":"2020-10-06","MEAN_MOTION":"15.06434964","FILE":"3872915","TIME_SYSTEM":"UTC","NORAD_CAT_ID":"46584","EPHEMERIS_TYPE":"0","OBJECT_NAME":"STARLINK-1732","GP_ID":"228990564","MEAN_ELEMENT_THEORY":"SGP4","TLE_LINE2":"2 46584  53.0523 314.8436 0001298 138.4125 221.6963 15.06434964137349","DECAY_DATE":null,"TLE_LINE1":"1 46584U 20070BE  23086.93544494  .00059705  00000-0  39896-2 0  9990","BSTAR":"0.00398960000000","OBJECT_TYPE":"PAYLOAD","OBJECT_ID":"2020-070BE","REF_FRAME":"TEME","PERIOD":"95.590","APOAPSIS":"548.005"},{"PERIAPSIS":"546.496","EPOCH":"2023-03-27T21:16:38.422848","REV_AT_EPOCH":"13733","MEAN_MOTION_DDOT":"0.0000000000000","CLASSIFICATION_TYPE":"U","LAUNCH_DATE":"2020-10-06","MEAN_MOTION":"15.06400984","NORAD_CAT_ID":"46585","TIME_SYSTEM":"UTC","FILE":"3872915","MEAN_ANOMALY":"276.4153","COUNTRY_CODE":"US","ELEMENT_SET_NO":"999","ECCENTRICITY":"0.00010320","MEAN_MOTION_DOT":"0.00018234","ARG_OF_PERICENTER":"83.6954","SEMIMAJOR_AXIS":"6925.346","RA_OF_ASC_NODE":"315.0581","SITE":"AFETR","RCS_SIZE":"LARGE","INCLINATION":"53.0530","CENTER_NAME":"EARTH","TLE_LINE1":"1 46585U 20070BF  23086.88655582  .00018234  00000-0  12398-2 0  9996","OBJECT_TYPE":"PAYLOAD","BSTAR":"0.00123980000000","OBJECT_ID":"2020-070BF","REF_FRAME":"TEME","APOAPSIS":"547.925","PERIOD":"95.592","EPHEMERIS_TYPE":"0","OBJECT_NAME":"STARLINK-1736","GP_ID":"228988815","MEAN_ELEMENT_THEORY":"SGP4","DECAY_DATE":null,"TLE_LINE2":"2 46585  53.0530 315.0581 0001032  83.6954 276.4153 15.06400984137332"},{"MEAN_MOTION_DOT":"0.00014488","ARG_OF_PERICENTER":"128.5667","COUNTRY_CODE":"US","MEAN_ANOMALY":"231.5404","ECCENTRICITY":"0.00009230","ELEMENT_SET_NO":"999","CENTER_NAME":"EARTH","RCS_SIZE":"LARGE","INCLINATION":"53.0541","SEMIMAJOR_AXIS":"6925.352","SITE":"AFETR","RA_OF_ASC_NODE":"315.1102","MEAN_MOTION_DDOT":"0.0000000000000","CLASSIFICATION_TYPE":"U","PERIAPSIS":"546.577","EPOCH":"2023-03-27T21:02:04.555104","REV_AT_EPOCH":"13733","TIME_SYSTEM":"UTC","NORAD_CAT_ID":"46586","FILE":"3872915","MEAN_MOTION":"15.06399034","LAUNCH_DATE":"2020-10-06","MEAN_ELEMENT_THEORY":"SGP4","OBJECT_NAME":"STARLINK-1737","GP_ID":"228989064","EPHEMERIS_TYPE":"0","DECAY_DATE":null,"TLE_LINE2":"2 46586  53.0541 315.1102 0000923 128.5667 231.5404 15.06399034137337","REF_FRAME":"TEME","OBJECT_TYPE":"PAYLOAD","BSTAR":"0.00098957000000","OBJECT_ID":"2020-070BG","TLE_LINE1":"1 46586U 20070BG  23086.87644161  .00014488  00000-0  98957-3 0  9990","PERIOD":"95.592","APOAPSIS":"547.856"},{"TLE_LINE2":"2 46588  53.0531 314.8914 0001009  82.5806 277.5297 15.06410273137345","DECAY_DATE":null,"MEAN_ELEMENT_THEORY":"SGP4","OBJECT_NAME":"STARLINK-1746","GP_ID":"228990314","EPHEMERIS_TYPE":"0","PERIOD":"95.591","APOAPSIS":"547.881","REF_FRAME":"TEME","OBJECT_ID":"2020-070BJ","OBJECT_TYPE":"PAYLOAD","BSTAR":"0.00146030000000","TLE_LINE1":"1 46588U 20070BJ  23086.92436073  .00021543  00000-0  14603-2 0  9994","CENTER_NAME":"EARTH","RCS_SIZE":"LARGE","INCLINATION":"53.0531","SITE":"AFETR","RA_OF_ASC_NODE":"314.8914","SEMIMAJOR_AXIS":"6925.317","ARG_OF_PERICENTER":"82.5806","MEAN_MOTION_DOT":"0.00021543","ECCENTRICITY":"0.00010090","ELEMENT_SET_NO":"999","COUNTRY_CODE":"US","MEAN_ANOMALY":"277.5297","FILE":"3872915","NORAD_CAT_ID":"46588","TIME_SYSTEM":"UTC","MEAN_MOTION":"15.06410273","LAUNCH_DATE":"2020-10-06","CLASSIFICATION_TYPE":"U","MEAN_MOTION_DDOT":"0.0000000000000","REV_AT_EPOCH":"13734","PERIAPSIS":"546.483","EPOCH":"2023-03-27T22:11:04.767072"}];
